{"spkid": "20286080", "covariance": {"epoch": "2457657.5", "elements": [{"label": "e", "units": null, "value": ".4825832884673336", "title": "eccentricity", "sigma": 6.80557535449195e-08, "name": "e"}, {"label": "q", "title": "perihelion distance", "value": ".5418267447818319", "units": "au", "name": "q", "sigma": 6.89735533851785e-08}, {"units": "TDB", "title": "time of perihelion passage", "value": "2457765.472870254598", "name": "tp", "sigma": 2.67274940105966e-05, "label": "tp"}, {"units": "deg", "title": "longitude of the ascending node", "value": "159.2373556964249", "sigma": 5.83109737819443e-05, "name": "om", "label": "node"}, {"units": "deg", "value": "354.1345062850374", "title": "argument of perihelion", "sigma": 6.14519786272153e-05, "name": "w", "label": "peri"}, {"title": "inclination", "value": "2.800388032853803", "units": "deg", "name": "i", "sigma": 4.23018019701367e-06, "label": "i"}], "data": [["4.631585590566824E-15", "-4.693048241068923E-15", "-8.58653037915166E-13", "4.893959467073279E-13", "-7.601696978202447E-13", "-6.547392777212391E-16"], ["-4.693048241068923E-15", "4.757351066578065E-15", "8.468153436388321E-13", "-4.837107065253089E-13", "7.480629681658119E-13", "-1.339731243541287E-16"], ["-8.58653037915166E-13", "8.468153436388321E-13", "7.143589360864757E-10", "-3.316566421186747E-10", "6.189710262728933E-10", "6.973343533234922E-12"], ["4.893959467073279E-13", "-4.837107065253089E-13", "-3.316566421186747E-10", "3.400169663398594E-9", "-3.526238137080655E-9", "6.879274559929498E-12"], ["-7.601696978202447E-13", "7.480629681658119E-13", "6.189710262728933E-10", "-3.526238137080655E-9", "3.77634567719973E-9", "-3.997272243970422E-12"], ["-6.547392777212391E-16", "-1.339731243541287E-16", "6.973343533234922E-12", "6.879274559929498E-12", "-3.997272243970422E-12", "1.789442449920663E-11"]], "labels": ["e", "q", "tp", "node", "peri", "i"]}, "elements": [{"name": "e", "sigma": "6.7112E-8", "units": null, "title": "eccentricity", "value": ".4827259412891806", "label": "e"}, {"label": "a", "name": "a", "sigma": "6.1825E-9", "value": "1.047217599094455", "title": "semi-major axis", "units": "au"}, {"label": "q", "title": "perihelion distance", "value": ".5416984978369883", "units": "au", "name": "q", "sigma": "6.8081E-8"}, {"label": "i", "sigma": "4.2238E-6", "name": "i", "units": "deg", "title": "inclination; angle with respect to x-y ecliptic plane", "value": "2.8125624061984"}, {"sigma": "5.8974E-5", "name": "om", "title": "longitude of the ascending node", "value": "159.2215506858294", "units": "deg", "label": "node"}, {"units": "deg", "value": "354.1253729716317", "title": "argument of perihelion", "name": "w", "sigma": "6.2651E-5", "label": "peri"}, {"name": "ma", "sigma": "1.6599E-5", "title": "mean anomaly", "value": "278.5364803407027", "units": "deg", "label": "M"}, {"label": "tp", "name": "tp", "sigma": "1.8194E-5", "title": "time of perihelion passage", "value": "2461289.075679845262", "units": "TDB"}, {"label": "period", "sigma": "3.4664E-6", "name": "per", "value": "391.4297452117892", "title": "sidereal orbital period", "units": "d"}, {"label": "n", "sigma": "8.1446E-9", "name": "n", "units": "deg/d", "value": ".9197052712619384", "title": "mean motion"}, {"label": "Q", "title": "aphelion distance", "value": "1.552736700351921", "units": "au", "name": "ad", "sigma": "9.167E-9"}], "epoch": "2461200.5"}